[{"OBJECT_NAME":"STARLINK-36866","OBJECT_ID":"2026-035S","EPOCH":"2026-03-21T19:33:32.073120","MEAN_MOTION":15.75289279,"ECCENTRICITY":0.00024658,"INCLINATION":97.2859,"RA_OF_ASC_NODE":13.8278,"ARG_OF_PERICENTER":114.5254,"MEAN_ANOMALY":245.6269,"EPHEMERIS_TYPE":0,"CLASSIFICATION_TYPE":"U","NORAD_CAT_ID":67895,"ELEMENT_SET_NO":999,"REV_AT_EPOCH":575,"BSTAR":0.0018540854,"MEAN_MOTION_DOT":0.00287161,"MEAN_MOTION_DDOT":0},{"OBJECT_NAME":"STARLINK-36877","OBJECT_ID":"2026-035T","EPOCH":"2026-03-21T19:05:35.002464","MEAN_MOTION":15.80964183,"ECCENTRICITY":0.00015357,"INCLINATION":97.29,"RA_OF_ASC_NODE":13.8544,"ARG_OF_PERICENTER":123.8118,"MEAN_ANOMALY":236.3297,"EPHEMERIS_TYPE":0,"CLASSIFICATION_TYPE":"U","NORAD_CAT_ID":67896,"ELEMENT_SET_NO":999,"REV_AT_EPOCH":575,"BSTAR":0.0024437685,"MEAN_MOTION_DOT":0.00499127,"MEAN_MOTION_DDOT":0},{"OBJECT_NAME":"STARLINK-36870","OBJECT_ID":"2026-035U","EPOCH":"2026-03-22T04:00:01.999584","MEAN_MOTION":15.75154589,"ECCENTRICITY":0.0001462,"INCLINATION":97.2859,"RA_OF_ASC_NODE":14.2421,"ARG_OF_PERICENTER":107.2269,"MEAN_ANOMALY":192.0097,"EPHEMERIS_TYPE":0,"CLASSIFICATION_TYPE":"U","NORAD_CAT_ID":67897,"ELEMENT_SET_NO":999,"REV_AT_EPOCH":576,"BSTAR":0.00035721065,"MEAN_MOTION_DOT":0.00053403,"MEAN_MOTION_DDOT":0},{"OBJECT_NAME":"STARLINK-36810","OBJECT_ID":"2026-035V","EPOCH":"2026-03-22T01:25:45.825888","MEAN_MOTION":15.7525079,"ECCENTRICITY":0.00017343,"INCLINATION":97.2878,"RA_OF_ASC_NODE":14.1058,"ARG_OF_PERICENTER":124.7597,"MEAN_ANOMALY":235.3832,"EPHEMERIS_TYPE":0,"CLASSIFICATION_TYPE":"U","NORAD_CAT_ID":67898,"ELEMENT_SET_NO":999,"REV_AT_EPOCH":579,"BSTAR":0.0018550833,"MEAN_MOTION_DOT":0.0028682,"MEAN_MOTION_DDOT":0},{"OBJECT_NAME":"STARLINK-36878","OBJECT_ID":"2026-035W","EPOCH":"2026-03-21T18:59:05.548416","MEAN_MOTION":15.80888179,"ECCENTRICITY":8.844e-5,"INCLINATION":97.2881,"RA_OF_ASC_NODE":13.8579,"ARG_OF_PERICENTER":73.5981,"MEAN_ANOMALY":286.5384,"EPHEMERIS_TYPE":0,"CLASSIFICATION_TYPE":"U","NORAD_CAT_ID":67899,"ELEMENT_SET_NO":999,"REV_AT_EPOCH":575,"BSTAR":0.0012831574,"MEAN_MOTION_DOT":0.00253765,"MEAN_MOTION_DDOT":0},{"OBJECT_NAME":"STARLINK-36361","OBJECT_ID":"2026-035X","EPOCH":"2026-03-21T18:58:00.643872","MEAN_MOTION":15.80953838,"ECCENTRICITY":0.00018912,"INCLINATION":97.288,"RA_OF_ASC_NODE":13.86,"ARG_OF_PERICENTER":122.1834,"MEAN_ANOMALY":237.9618,"EPHEMERIS_TYPE":0,"CLASSIFICATION_TYPE":"U","NORAD_CAT_ID":67900,"ELEMENT_SET_NO":999,"REV_AT_EPOCH":575,"BSTAR":0.0022374087,"MEAN_MOTION_DOT":0.00454367,"MEAN_MOTION_DDOT":0},{"OBJECT_NAME":"STARLINK-36336","OBJECT_ID":"2026-035Y","EPOCH":"2026-03-22T04:00:01.999584","MEAN_MOTION":15.75122732,"ECCENTRICITY":0.00012598,"INCLINATION":97.2867,"RA_OF_ASC_NODE":14.2359,"ARG_OF_PERICENTER":85.6238,"MEAN_ANOMALY":195.6303,"EPHEMERIS_TYPE":0,"CLASSIFICATION_TYPE":"U","NORAD_CAT_ID":67901,"ELEMENT_SET_NO":999,"REV_AT_EPOCH":581,"BSTAR":0.00081946523,"MEAN_MOTION_DOT":0.00123521,"MEAN_MOTION_DDOT":0},{"OBJECT_NAME":"STARLINK-36876","OBJECT_ID":"2026-035Z","EPOCH":"2026-03-22T05:35:22.188480","MEAN_MOTION":15.79464513,"ECCENTRICITY":0.00033143,"INCLINATION":97.288,"RA_OF_ASC_NODE":14.331,"ARG_OF_PERICENTER":46.2275,"MEAN_ANOMALY":313.9267,"EPHEMERIS_TYPE":0,"CLASSIFICATION_TYPE":"U","NORAD_CAT_ID":67902,"ELEMENT_SET_NO":999,"REV_AT_EPOCH":582,"BSTAR":-0.0044394418,"MEAN_MOTION_DOT":-0.00736139,"MEAN_MOTION_DDOT":0},{"OBJECT_NAME":"STARLINK-36257","OBJECT_ID":"2026-035AA","EPOCH":"2026-03-22T06:15:58.379904","MEAN_MOTION":15.75177865,"ECCENTRICITY":1.922e-5,"INCLINATION":97.2861,"RA_OF_ASC_NODE":14.2939,"ARG_OF_PERICENTER":265.0076,"MEAN_ANOMALY":95.1168,"EPHEMERIS_TYPE":0,"CLASSIFICATION_TYPE":"U","NORAD_CAT_ID":67903,"ELEMENT_SET_NO":999,"REV_AT_EPOCH":582,"BSTAR":0.0027516116,"MEAN_MOTION_DOT":0.00431572,"MEAN_MOTION_DDOT":0},{"OBJECT_NAME":"STARLINK-36814","OBJECT_ID":"2026-036A","EPOCH":"2026-03-21T15:33:31.942368","MEAN_MOTION":15.50659778,"ECCENTRICITY":0.00017297,"INCLINATION":43.0002,"RA_OF_ASC_NODE":179.2551,"ARG_OF_PERICENTER":261.4102,"MEAN_ANOMALY":98.6562,"EPHEMERIS_TYPE":0,"CLASSIFICATION_TYPE":"U","NORAD_CAT_ID":67904,"ELEMENT_SET_NO":999,"REV_AT_EPOCH":553,"BSTAR":0.0014907072,"MEAN_MOTION_DOT":0.00088359,"MEAN_MOTION_DDOT":0},{"OBJECT_NAME":"STARLINK-36729","OBJECT_ID":"2026-036B","EPOCH":"2026-03-22T04:00:01.999584","MEAN_MOTION":15.474526,"ECCENTRICITY":0.00010105,"INCLINATION":42.9999,"RA_OF_ASC_NODE":175.5863,"ARG_OF_PERICENTER":258.2026,"MEAN_ANOMALY":16.9644,"EPHEMERIS_TYPE":0,"CLASSIFICATION_TYPE":"U","NORAD_CAT_ID":67905,"ELEMENT_SET_NO":999,"REV_AT_EPOCH":565,"BSTAR":-0.040722812,"MEAN_MOTION_DOT":-0.01918841,"MEAN_MOTION_DDOT":0},{"OBJECT_NAME":"STARLINK-36763","OBJECT_ID":"2026-036C","EPOCH":"2026-03-21T00:00:00.999648","MEAN_MOTION":15.50983574,"ECCENTRICITY":0.00014719,"INCLINATION":43.0005,"RA_OF_ASC_NODE":182.3255,"ARG_OF_PERICENTER":274.0677,"MEAN_ANOMALY":354.6883,"EPHEMERIS_TYPE":0,"CLASSIFICATION_TYPE":"U","NORAD_CAT_ID":67906,"ELEMENT_SET_NO":999,"REV_AT_EPOCH":546,"BSTAR":-0.038553266,"MEAN_MOTION_DOT":-0.02044709,"MEAN_MOTION_DDOT":0},{"OBJECT_NAME":"STARLINK-36742","OBJECT_ID":"2026-036D","EPOCH":"2026-03-22T05:51:35.611488","MEAN_MOTION":15.49306871,"ECCENTRICITY":0.00014527,"INCLINATION":43,"RA_OF_ASC_NODE":175.1045,"ARG_OF_PERICENTER":191.5852,"MEAN_ANOMALY":168.4975,"EPHEMERIS_TYPE":0,"CLASSIFICATION_TYPE":"U","NORAD_CAT_ID":67907,"ELEMENT_SET_NO":999,"REV_AT_EPOCH":563,"BSTAR":-0.0069739584,"MEAN_MOTION_DOT":-0.00373296,"MEAN_MOTION_DDOT":0},{"OBJECT_NAME":"STARLINK-36827","OBJECT_ID":"2026-036E","EPOCH":"2026-03-22T04:00:01.999584","MEAN_MOTION":15.43800888,"ECCENTRICITY":0.00016818,"INCLINATION":42.9996,"RA_OF_ASC_NODE":175.2898,"ARG_OF_PERICENTER":268.7899,"MEAN_ANOMALY":126.769,"EPHEMERIS_TYPE":0,"CLASSIFICATION_TYPE":"U","NORAD_CAT_ID":67908,"ELEMENT_SET_NO":999,"REV_AT_EPOCH":565,"BSTAR":-0.045947679,"MEAN_MOTION_DOT":-0.01909129,"MEAN_MOTION_DDOT":0},{"OBJECT_NAME":"STARLINK-36822","OBJECT_ID":"2026-036F","EPOCH":"2026-03-21T15:50:21.543648","MEAN_MOTION":15.50685632,"ECCENTRICITY":1.791e-5,"INCLINATION":42.9968,"RA_OF_ASC_NODE":178.457,"ARG_OF_PERICENTER":89.2305,"MEAN_ANOMALY":270.8576,"EPHEMERIS_TYPE":0,"CLASSIFICATION_TYPE":"U","NORAD_CAT_ID":67909,"ELEMENT_SET_NO":999,"REV_AT_EPOCH":554,"BSTAR":0.0015159786,"MEAN_MOTION_DOT":0.00089964,"MEAN_MOTION_DDOT":0},{"OBJECT_NAME":"STARLINK-36847","OBJECT_ID":"2026-036G","EPOCH":"2026-03-21T15:55:14.730816","MEAN_MOTION":15.50600933,"ECCENTRICITY":0.00026297,"INCLINATION":43.0042,"RA_OF_ASC_NODE":178.4878,"ARG_OF_PERICENTER":294.5188,"MEAN_ANOMALY":65.5398,"EPHEMERIS_TYPE":0,"CLASSIFICATION_TYPE":"U","NORAD_CAT_ID":67910,"ELEMENT_SET_NO":999,"REV_AT_EPOCH":554,"BSTAR":0.001879945,"MEAN_MOTION_DOT":0.00111624,"MEAN_MOTION_DDOT":0}]
