STARLINK-36866          
1 67895U 26035S   26080.81495455  .00287161  00000+0  18541-2 0  9993
2 67895  97.2859  13.8278 0002465 114.5254 245.6269 15.75289279  5751
STARLINK-36877          
1 67896U 26035T   26080.79554401  .00499127  00000+0  24438-2 0  9997
2 67896  97.2900  13.8544 0001535 123.8118 236.3297 15.80964183  5752
STARLINK-36870          
1 67897U 26035U   26081.16668981  .00053403  00000+0  35721-3 0  9990
2 67897  97.2859  14.2421 0001462 107.2269 192.0097 15.75154589  5769
STARLINK-36810          
1 67898U 26035V   26081.05955817  .00286820  00000+0  18551-2 0  9998
2 67898  97.2878  14.1058 0001734 124.7597 235.3832 15.75250790  5798
STARLINK-36878          
1 67899U 26035W   26080.79103644  .00253765  00000+0  12832-2 0  9990
2 67899  97.2881  13.8579 0000884  73.5981 286.5384 15.80888179  5750
STARLINK-36361          
1 67900U 26035X   26080.79028523  .00454367  00000+0  22374-2 0  9998
2 67900  97.2880  13.8600 0001891 122.1834 237.9618 15.80953838  5759
STARLINK-36336          
1 67901U 26035Y   26081.16668981  .00123521  00000+0  81947-3 0  9996
2 67901  97.2867  14.2359 0001259  85.6238 195.6303 15.75122732  5813
STARLINK-36876          
1 67902U 26035Z   26081.23289570 -.00736139  00000+0 -44394-2 0  9999
2 67902  97.2880  14.3310 0003314  46.2275 313.9267 15.79464513  5820
STARLINK-36257          
1 67903U 26035AA  26081.26109236  .00431572  00000+0  27516-2 0  9991
2 67903  97.2861  14.2939 0000192 265.0076  95.1168 15.75177865  5823
STARLINK-36814          
1 67904U 26036A   26080.64828637  .00088359  00000+0  14907-2 0  9998
2 67904  43.0002 179.2551 0001729 261.4102  98.6562 15.50659778  5534
STARLINK-36729          
1 67905U 26036B   26081.16668981 -.01918841  00000+0 -40723-1 0  9996
2 67905  42.9999 175.5863 0001010 258.2026  16.9644 15.47452600  5653
STARLINK-36763          
1 67906U 26036C   26080.00001157 -.02044709  00000+0 -38553-1 0  9997
2 67906  43.0005 182.3255 0001471 274.0677 354.6883 15.50983574  5463
STARLINK-36742          
1 67907U 26036D   26081.24416217 -.00373296  00000+0 -69740-2 0  9999
2 67907  43.0000 175.1045 0001452 191.5852 168.4975 15.49306871  5632
STARLINK-36827          
1 67908U 26036E   26081.16668981 -.01909129  00000+0 -45948-1 0  9992
2 67908  42.9996 175.2898 0001681 268.7899 126.7690 15.43800888  5658
STARLINK-36822          
1 67909U 26036F   26080.65997157  .00089964  00000+0  15160-2 0  9993
2 67909  42.9968 178.4570 0000179  89.2305 270.8576 15.50685632  5547
STARLINK-36847          
1 67910U 26036G   26080.66336494  .00111624  00000+0  18799-2 0  9997
2 67910  43.0042 178.4878 0002629 294.5188  65.5398 15.50600933  5549
